NORAD_CAT_ID,OBJECT_NAME,OBJECT_TYPE,EPOCH,MEAN_MOTION,ECCENTRICITY,INCLINATION,RA_OF_ASC_NODE,ARG_OF_PERICENTER,MEAN_ANOMALY,BSTAR,MEAN_MOTION_DOT,MEAN_MOTION_DDOT,TLE_LINE0,TLE_LINE1,TLE_LINE2,SEMIMAJOR_AXIS,PERIOD,APOGEE,PERIGEE,DECAYED
52349.0,STARLINK-3819,PAYLOAD,2023-06-06 11:08:50,15.08839795,0.000108,53.2175,40.73,92.793,267.3186,4.6082e-05,4.46e-06,0.0,0 STARLINK-3819,1 52349U 22045U   23157.46447839  .00000446  00000-0  46082-4 0  9997,2 52349  53.2175  40.7300 0001080  92.7930 267.3186 15.08839795 63727,6917.881,95.438,540.493,538.999,0.0
52349.0,STARLINK-3819,PAYLOAD,2023-06-07 01:27:18,15.08848806,0.0001076,53.2173,38.054,97.9077,262.2038,8.9199e-05,1.132e-05,0.0,0 STARLINK-3819,1 52349U 22045U   23158.06063171  .00001132  00000-0  89199-4 0  9996,2 52349  53.2173  38.0540 0001076  97.9077 262.2038 15.08848806 63818,6917.853,95.437,540.463,538.974,0.0
52349.0,STARLINK-3819,PAYLOAD,2023-06-07 15:45:47,15.08832097,0.0001283,53.2177,35.374,126.6126,233.4984,1.7069e-05,-1.6e-07,0.0,0 STARLINK-3819,1 52349U 22045U   23158.65680362 -.00000016  00000-0  17069-4 0  9996,2 52349  53.2177  35.3740 0001283 126.6126 233.4984 15.08832097 63904,6917.905,95.438,540.657,538.882,0.0
52349.0,STARLINK-3819,PAYLOAD,2023-06-07 22:07:20,15.08834295,0.000112,53.2181,34.1857,118.66,241.4505,1.6043e-05,-3.2e-07,0.0,0 STARLINK-3819,1 52349U 22045U   23158.92176356 -.00000032  00000-0  16043-4 0  9998,2 52349  53.2181  34.1857 0001120 118.6600 241.4505 15.08834295 63947,6917.898,95.438,540.538,538.988,0.0
52349.0,STARLINK-3819,PAYLOAD,2023-06-08 01:18:06,15.08838833,0.0001164,53.2182,33.5912,95.5224,264.5901,1.1353e-05,-1.07e-06,0.0,0 STARLINK-3819,1 52349U 22045U   23159.05424223 -.00000107  00000-0  11353-4 0  9994,2 52349  53.2182  33.5912 0001164  95.5224 264.5901 15.08838833 63966,6917.884,95.438,540.554,538.944,0.0
52349.0,STARLINK-3819,PAYLOAD,2023-06-09 01:08:52,15.08850353,0.0001157,53.2183,29.1302,97.3163,262.796,7.3206e-05,8.78e-06,0.0,0 STARLINK-3819,1 52349U 22045U   23160.04783337  .00000878  00000-0  73206-4 0  9998,2 52349  53.2183  29.1302 0001157  97.3163 262.7960 15.08850353 64119,6917.849,95.437,540.514,538.913,0.0
52349.0,STARLINK-3819,PAYLOAD,2023-06-09 15:27:22,15.08833372,0.0001062,53.2175,26.4569,83.5342,276.5771,4.9757e-05,5.04e-06,0.0,0 STARLINK-3819,1 52349U 22045U   23160.64400648  .00000504  00000-0  49757-4 0  9995,2 52349  53.2175  26.4569 0001062  83.5342 276.5771 15.08833372 64201,6917.901,95.438,540.5,539.031,0.0
52349.0,STARLINK-3819,PAYLOAD,2023-06-09 21:48:54,15.08836583,0.0001142,53.2184,25.2657,88.022,272.0903,7.5075e-05,9.07e-06,0.0,0 STARLINK-3819,1 52349U 22045U   23160.90896514  .00000907  00000-0  75075-4 0  9994,2 52349  53.2184  25.2657 0001142  88.0220 272.0903 15.08836583 64249,6917.891,95.438,540.546,538.966,0.0
52349.0,STARLINK-3819,PAYLOAD,2023-06-10 13:42:46,15.0883858,0.0001109,53.2179,22.2934,88.9669,271.1451,7.5002e-05,9.06e-06,0.0,0 STARLINK-3819,1 52349U 22045U   23161.57136609  .00000906  00000-0  75002-4 0  9999,2 52349  53.2179  22.2934 0001109  88.9669 271.1451 15.08838580 64345,6917.885,95.438,540.517,538.983,0.0
52349.0,STARLINK-3819,PAYLOAD,2023-06-10 21:39:41,15.08849237,0.000112,53.2177,20.8072,88.7285,271.3836,6.1747e-05,6.95e-06,0.0,0 STARLINK-3819,1 52349U 22045U   23161.90255946  .00000695  00000-0  61747-4 0  9998,2 52349  53.2177  20.8072 0001120  88.7285 271.3836 15.08849237 64390,6917.852,95.437,540.492,538.942,0.0
52349.0,STARLINK-3819,PAYLOAD,2023-06-11 00:50:27,15.08851551,0.000114,53.2178,20.2122,88.4883,271.624,8.3103e-05,1.035e-05,0.0,0 STARLINK-3819,1 52349U 22045U   23162.03503717  .00001035  00000-0  83103-4 0  9994,2 52349  53.2178  20.2122 0001140  88.4883 271.6240 15.08851551 64411,6917.845,95.437,540.499,538.921,0.0
52349.0,STARLINK-3819,PAYLOAD,2023-06-11 07:11:59,15.08848186,0.000107,53.2176,19.0235,87.1995,272.9119,5.7645e-05,6.3e-06,0.0,0 STARLINK-3819,1 52349U 22045U   23162.29999966  .00000630  00000-0  57645-4 0  9999,2 52349  53.2176  19.0235 0001070  87.1995 272.9119 15.08848186 64455,6917.855,95.437,540.461,538.98,0.0
52349.0,STARLINK-3819,PAYLOAD,2023-06-11 15:08:56,15.08833285,0.0001267,53.2173,17.536,93.5465,266.5672,2.7697e-06,-2.44e-06,0.0,0 STARLINK-3819,1 52349U 22045U   23162.63120706 -.00000244  00000-0  27697-5 0  9992,2 52349  53.2173  17.5360 0001267  93.5465 266.5672 15.08833285 64508,6917.901,95.438,540.642,538.889,0.0
52349.0,STARLINK-3819,PAYLOAD,2023-06-11 21:30:28,15.0883949,0.0001469,53.2177,16.3469,97.0361,263.0798,0.00011166,1.49e-05,0.0,0 STARLINK-3819,1 52349U 22045U   23162.89616623  .00001490  00000-0  11166-3 0  9993,2 52349  53.2177  16.3469 0001469  97.0361 263.0798 15.08839490 64546,6917.882,95.438,540.763,538.731,0.0
52349.0,STARLINK-3819,PAYLOAD,2023-06-12 07:02:47,15.08838887,0.0001199,53.2181,14.5633,92.3448,267.7681,5.0851e-05,5.22e-06,0.0,0 STARLINK-3819,1 52349U 22045U   23163.29360842  .00000522  00000-0  50851-4 0  9997,2 52349  53.2181  14.5633 0001199  92.3448 267.7681 15.08838887 64606,6917.884,95.438,540.578,538.919,0.0
52349.0,STARLINK-3819,PAYLOAD,2023-06-12 22:56:38,15.08846362,0.0001155,53.2188,11.5904,94.2636,265.8488,9.147e-05,1.168e-05,0.0,0 STARLINK-3819,1 52349U 22045U   23163.95600289  .00001168  00000-0  91470-4 0  9991,2 52349  53.2188  11.5904 0001155  94.2636 265.8488 15.08846362 64705,6917.861,95.437,540.525,538.927,0.0
52349.0,STARLINK-3819,PAYLOAD,2023-06-13 13:15:07,15.08838066,0.0001064,53.2184,8.914,89.5897,270.5217,9.5317e-05,1.229e-05,0.0,0 STARLINK-3819,1 52349U 22045U   23164.55216723  .00001229  00000-0  95317-4 0  9996,2 52349  53.2184   8.9140 0001064  89.5897 270.5217 15.08838066 64792,6917.886,95.438,540.487,539.015,0.0
52349.0,STARLINK-3819,PAYLOAD,2023-06-14 13:05:54,15.08832951,0.0001446,53.2188,4.4539,90.2707,269.8451,0.00013994,1.939e-05,0.0,0 STARLINK-3819,1 52349U 22045U   23165.54577225  .00001939  00000-0  13994-3 0  9991,2 52349  53.2188   4.4539 0001446  90.2707 269.8451 15.08832951 64947,6917.902,95.438,540.767,538.767,0.0
52349.0,STARLINK-3819,PAYLOAD,2023-06-14 19:27:27,15.08839257,0.0001429,53.2188,3.265,80.8914,279.224,4.2368e-05,3.86e-06,0.0,0 STARLINK-3819,1 52349U 22045U   23165.81073083  .00000386  00000-0  42368-4 0  9997,2 52349  53.2188   3.2650 0001429  80.8914 279.2240 15.08839257 64985,6917.883,95.438,540.736,538.759,0.0
52349.0,STARLINK-3819,PAYLOAD,2023-06-15 12:56:41,15.08842785,0.0001435,53.2182,359.9921,92.0338,268.0818,2.9644e-05,1.84e-06,0.0,0 STARLINK-3819,1 52349U 22045U   23166.53936915  .00000184  00000-0  29644-4 0  9997,2 52349  53.2182 359.9921 0001435  92.0338 268.0818 15.08842785 65093,6917.872,95.437,540.73,538.744,0.0
52349.0,STARLINK-3819,PAYLOAD,2023-06-15 19:18:13,15.08846853,0.0001201,53.2182,358.8013,95.4972,264.6157,7.7796e-05,9.51e-06,0.0,0 STARLINK-3819,1 52349U 22045U   23166.80432452  .00000951  00000-0  77796-4 0  9997,2 52349  53.2182 358.8013 0001201  95.4972 264.6157 15.08846853 65138,6917.859,95.437,540.555,538.894,0.0
52349.0,STARLINK-3819,PAYLOAD,2023-06-16 11:12:04,15.088458,0.0001156,53.218,355.8278,91.6186,268.4938,0.00013417,1.848e-05,0.0,0 STARLINK-3819,1 52349U 22045U   23167.46672305  .00001848  00000-0  13417-3 0  9998,2 52349  53.2180 355.8278 0001156  91.6186 268.4938 15.08845800 65231,6917.863,95.437,540.527,538.928,0.0
52349.0,STARLINK-3819,PAYLOAD,2023-06-16 19:08:59,15.08851437,0.0001039,53.2182,354.3411,93.1105,267.0006,0.0001844,2.649e-05,0.0,0 STARLINK-3819,1 52349U 22045U   23167.79791659  .00002649  00000-0  18440-3 0  9999,2 52349  53.2182 354.3411 0001039  93.1105 267.0006 15.08851437 65283,6917.845,95.437,540.429,538.992,0.0
52349.0,STARLINK-3819,PAYLOAD,2023-06-16 22:19:46,15.08854494,0.0001046,53.2181,353.7461,93.822,266.2892,0.00021093,3.072e-05,0.0,0 STARLINK-3819,1 52349U 22045U   23167.93039374  .00003072  00000-0  21093-3 0  9993,2 52349  53.2181 353.7461 0001046  93.8220 266.2892 15.08854494 65306,6917.836,95.437,540.425,538.977,0.0
52349.0,STARLINK-3819,PAYLOAD,2023-06-17 12:38:15,15.08829409,0.0001012,53.2173,351.0705,90.8923,269.2185,-0.0001607,-2.844e-05,0.0,0 STARLINK-3819,1 52349U 22045U   23168.52657280 -.00002844  00000-0 -16070-3 0  9998,2 52349  53.2173 351.0705 0001012  90.8923 269.2185 15.08829409 65394,6917.913,95.438,540.478,539.078,0.0
52349.0,STARLINK-3819,PAYLOAD,2023-06-17 18:59:48,15.08825668,7.5e-05,53.2174,349.8811,102.2865,257.8211,-0.00019089,-3.323e-05,0.0,0 STARLINK-3819,1 52349U 22045U   23168.79153577 -.00003323  00000-0 -19089-3 0  9993,2 52349  53.2174 349.8811 0000750 102.2865 257.8211 15.08825668 65430,6917.924,95.438,540.308,539.27,0.0
52349.0,STARLINK-3819,PAYLOAD,2023-06-17 20:35:11,15.08827124,0.0001076,53.2175,349.5837,102.3275,257.7837,-0.00016677,-2.94e-05,0.0,0 STARLINK-3819,1 52349U 22045U   23168.85777585 -.00002940  00000-0 -16677-3 0  9995,2 52349  53.2175 349.5837 0001076 102.3275 257.7837 15.08827124 65447,6917.92,95.438,540.529,539.04,0.0
52349.0,STARLINK-3819,PAYLOAD,2023-06-18 04:32:07,15.08832159,0.0001018,53.2178,348.0965,102.629,257.4816,-5.5872e-05,-1.177e-05,0.0,0 STARLINK-3819,1 52349U 22045U   23169.18897526 -.00001177  00000-0 -55872-4 0  9992,2 52349  53.2178 348.0965 0001018 102.6290 257.4816 15.08832159 65495,6917.904,95.438,540.474,539.065,0.0
52349.0,STARLINK-3819,PAYLOAD,2023-06-18 12:29:02,15.0883863,9.42e-05,53.2174,346.6102,105.8099,254.2997,2.3e-05,7.8e-07,0.0,0 STARLINK-3819,1 52349U 22045U   23169.52017325  .00000078  00000-0  23000-4 0  9996,2 52349  53.2174 346.6102 0000942 105.8099 254.2997 15.08838630 65546,6917.885,95.438,540.401,539.098,0.0
52349.0,STARLINK-3819,PAYLOAD,2023-06-18 18:50:35,15.08845509,9.54e-05,53.2175,345.4213,107.1475,252.9622,0.00014562,2.031e-05,0.0,0 STARLINK-3819,1 52349U 22045U   23169.78513038  .00002031  00000-0  14562-3 0  9999,2 52349  53.2175 345.4213 0000954 107.1475 252.9622 15.08845509 65580,6917.864,95.437,540.389,539.069,0.0
